              M50 Cartesian                         M50 Keplerian  
    -----------------------------------       --------------------------------
     X    =        4239966.40                 A    =         6792472.73  meter
     Y    =         681746.40  meter          E    =           .0003387
     Z    =        5260075.65                 I    =           51.23273
     XDOT =       -381.029549                 Wp   =           67.02177
     YDOT =       7623.042931  meter/sec      RA   =          268.76329  deg
     ZDOT =       -679.220162                 TA   =           29.51556
                                              MA   =           29.49644
                                              Ha   =            229.065  n.mi
                                              Hp   =            222.597
 
              M50 Cartesian                         J2K Cartesian  
    -----------------------------------       --------------------------------
     X    =       13910650.92                 X    =         4206477.58
     Y    =        2236700.78  feet           Y    =          728973.60  meter
     Z    =       17257466.03                 Z    =         5280590.20
     XDOT =      -1250.096947                 XDOT =        -462.945156
     YDOT =      25009.983368  feet/sec       YDOT =        7618.323952  meter/sec
     ZDOT =      -2228.412605                 ZDOT =        -681.270147
 
              TDR Cartesian                         TDR Cartesian  
    -----------------------------------       --------------------------------
     X    =        5259222.82                 X    =         1603011.12
     Y    =       12945107.61  feet           Y    =         3945668.80  meter
     Z    =       17352058.60                 Z    =         5288907.46
     XDOT =     -21062.200071                 XDOT =       -6419.758582
     YDOT =      11564.178039  feet/sec       YDOT =        3524.761466  meter/sec
     ZDOT =      -2238.079892                 ZDOT =        -682.166751
  
  
    The mean element set is posted at the UTC for which position is
    just north of the next ascending node relative to the above
    vector time
 
 
    TWO LINE MEAN ELEMENT SET
  
    ISS
    1 25544U 98067A   20257.90540068  .00016717  00000-0  10270-3 0  9128
    2 25544  51.6438 269.4453 0000403  92.8482 267.2714 15.49000092  5769
  
  
    Satellite: ISS
    Catalog Number: 25544
    Epoch time:      20257.90540068   =   yrday.fracday
    Element set:     912
    Inclination:       51.6438  deg
    RA of node:       269.4453  deg
    Eccentricity:     .0000403     
    Arg of perigee:    92.8482  deg
    Mean anomaly:     267.2714  deg
    Mean motion:   15.49000092  rev/day
    Decay rate:    1.67170E-04  rev/day^2
    Epoch rev:             576
    Checksum:              301
 
 
    Coasting Arc #14 (Orbit 590)
    ---------------------------------------
 
    Vector Time (GMT): 2020/258/20:35:45.072
    Vector Time (MET): N/A
    Weight (LBS)     : 922309.3
 
              M50 Cartesian                         M50 Keplerian  
    -----------------------------------       --------------------------------
     X    =       -4290666.31                 A    =         6792522.10  meter
     Y    =        -310749.93  meter          E    =           .0015058
     Z    =       -5269816.75                 I    =           51.23417
     XDOT =       -280.800117                 Wp   =           94.79308
     YDOT =      -7613.626336  meter/sec      RA   =          263.78959  deg
     ZDOT =        678.036035                 TA   =          181.73233
                                              MA   =          181.73755
                                              Ha   =            229.271  n.mi
                                              Hp   =            222.415
 
              M50 Cartesian                         J2K Cartesian  
    -----------------------------------       --------------------------------
     X    =      -14076989.20                 X    =        -4261275.04
     Y    =       -1019520.75  feet           Y    =         -358567.12  meter
     Z    =      -17289425.04                 Z    =        -5290587.51
     XDOT =       -921.260225                 XDOT =        -198.934863
     YDOT =     -24979.089030  feet/sec       YDOT =       -7616.308677  meter/sec
     ZDOT =       2224.527674                 ZDOT =         676.871193
 
              TDR Cartesian                         TDR Cartesian  
    -----------------------------------       --------------------------------
     X    =       -6598621.64                 X    =        -2011259.88
     Y    =      -12342517.96  feet           Y    =        -3761999.47  meter
     Z    =      -17385215.24                 Z    =        -5299013.61
     XDOT =      19710.684110                 XDOT =        6007.816517
     YDOT =     -13661.843640  feet/sec       YDOT =       -4164.129941  meter/sec
     ZDOT =       2219.342000                 ZDOT =         676.455442
  
  
    The mean element set is posted at the UTC for which position is
    just north of the next ascending node relative to the above
    vector time
 
 
    TWO LINE MEAN ELEMENT SET
  
    ISS
    1 25544U 98067A   20258.87314890  .00016717  00000-0  10270-3 0  9138
    2 25544  51.6432 264.6581 0000481  79.6984 280.4221 15.48986738  5914
  
  
    Satellite: ISS
    Catalog Number: 25544
    Epoch time:      20258.87314890   =   yrday.fracday
    Element set:     913
    Inclination:       51.6432  deg
    RA of node:       264.6581  deg
    Eccentricity:     .0000481     
    Arg of perigee:    79.6984  deg
    Mean anomaly:     280.4221  deg
    Mean motion:   15.48986738  rev/day
    Decay rate:    1.67170E-04  rev/day^2
    Epoch rev:             591
    Checksum:              336
 
 
    Coasting Arc #15 (Orbit 606)
    ---------------------------------------
 
    Vector Time (GMT): 2020/259/20:35:45.072
    Vector Time (MET): N/A
    Weight (LBS)     : 922309.3
 
              M50 Cartesian                         M50 Keplerian  
    -----------------------------------       --------------------------------
     X    =        4293948.20                 A    =         6792494.71  meter
     Y    =         -57101.72  meter          E    =           .0003452
     Z    =        5260136.10                 I    =           51.23821
     XDOT =        938.878575                 Wp   =           66.98098
     YDOT =       7574.327611  meter/sec      RA   =          258.81648  deg
     ZDOT =       -682.515015                 TA   =           29.58783
                                              MA   =           29.56830
                                              Ha   =            229.099  n.mi
                                              Hp   =            222.588
 
              M50 Cartesian                         J2K Cartesian  
    -----------------------------------       --------------------------------
     X    =       14087756.57                 X    =         4268717.12
     Y    =        -187341.61  feet           Y    =           -9224.43  meter
     Z    =       17257664.37                 Z    =         5280932.93
     XDOT =       3080.310287                 XDOT =         857.425621
     YDOT =      24850.156203  feet/sec       YDOT =        7584.371344  meter/sec
     ZDOT =      -2239.222489                 ZDOT =        -678.152708
 
              TDR Cartesian                         TDR Cartesian  
    -----------------------------------       --------------------------------
     X    =        7824732.37                 X    =         2384978.43
     Y    =       11573829.05  feet           Y    =         3527703.10  meter
     Z    =       17353587.70                 Z    =         5289373.53
     XDOT =     -18227.358998                 XDOT =       -5555.699023
     YDOT =      15658.758872  feet/sec       YDOT =        4772.789704  meter/sec
     ZDOT =      -2219.261517                 ZDOT =        -676.430910
  
  
    The mean element set is posted at the UTC for which position is
    just north of the next ascending node relative to the above
    vector time
 
 
    TWO LINE MEAN ELEMENT SET
  
    ISS
    1 25544U 98067A   20259.90541094  .00016717  00000-0  10270-3 0  9142
    2 25544  51.6424 259.5521 0000464  87.1354 272.9849 15.48991850  6079
  
  
    Satellite: ISS
    Catalog Number: 25544
    Epoch time:      20259.90541094   =   yrday.fracday
    Element set:     914
    Inclination:       51.6424  deg
    RA of node:       259.5521  deg
    Eccentricity:     .0000464     
    Arg of perigee:    87.1354  deg
    Mean anomaly:     272.9849  deg
    Mean motion:   15.48991850  rev/day
    Decay rate:    1.67170E-04  rev/day^2
    Epoch rev:             607
    Checksum:              325
 
 
    Coasting Arc #16 (Orbit 621)
    ---------------------------------------
 
    Vector Time (GMT): 2020/260/20:35:45.072
    Vector Time (MET): N/A
    Weight (LBS)     : 922309.3
 
